NORAD_CAT_ID,OBJECT_NAME,OBJECT_TYPE,EPOCH,MEAN_MOTION,ECCENTRICITY,INCLINATION,RA_OF_ASC_NODE,ARG_OF_PERICENTER,MEAN_ANOMALY,BSTAR,MEAN_MOTION_DOT,MEAN_MOTION_DDOT,TLE_LINE0,TLE_LINE1,TLE_LINE2,SEMIMAJOR_AXIS,PERIOD,APOGEE,PERIGEE,DECAYED
53824.0,STARLINK-4757,PAYLOAD,2023-03-16 11:06:00,15.08826941,0.0001562,53.2182,153.9564,76.8637,283.2529,-9.3376e-05,-1.773e-05,0.0,0 STARLINK-4757,1 53824U 22114G   23075.46250742 -.00001773  00000-0 -93376-4 0  9991,2 53824  53.2182 153.9564 0001562  76.8637 283.2529 15.08826941 27856,6917.92,95.438,540.866,538.705,0.0
53824.0,STARLINK-4757,PAYLOAD,2023-03-16 22:13:42,15.08826639,0.0001275,53.218,151.8728,84.6674,275.4464,-0.00019438,-3.379e-05,0.0,0 STARLINK-4757,1 53824U 22114G   23075.92619165 -.00003379  00000-0 -19438-3 0  9990,2 53824  53.2180 151.8728 0001275  84.6674 275.4464 15.08826639 28375,6917.921,95.438,540.668,538.904,0.0
53824.0,STARLINK-4757,PAYLOAD,2023-03-17 10:56:48,15.0881594,0.0001049,53.2177,149.4942,92.4224,267.6889,-0.00015176,-2.701e-05,0.0,0 STARLINK-4757,1 53824U 22114G   23076.45612189 -.00002701  00000-0 -15176-3 0  9991,2 53824  53.2177 149.4942 0001049  92.4224 267.6889 15.08815940 28455,6917.954,95.439,540.545,539.093,0.0
53824.0,STARLINK-4757,PAYLOAD,2023-03-17 14:07:34,15.08832965,0.000133,53.2164,148.8989,87.5989,272.5155,-0.00020247,-3.508e-05,0.0,0 STARLINK-4757,1 53824U 22114G   23076.58859522 -.00003508  00000-0 -20247-3 0  9990,2 53824  53.2164 148.8989 0001330  87.5989 272.5155 15.08832965 28021,6917.902,95.438,540.687,538.847,0.0
53824.0,STARLINK-4757,PAYLOAD,2023-03-18 04:26:02,15.08831515,0.0001299,53.2169,146.2225,91.9813,268.1328,0.00014722,2.055e-05,0.0,0 STARLINK-4757,1 53824U 22114G   23077.18474565  .00002055  00000-0  14722-3 0  9992,2 53824  53.2169 146.2225 0001299  91.9813 268.1328 15.08831515 28113,6917.906,95.438,540.67,538.873,0.0
53824.0,STARLINK-4757,PAYLOAD,2023-03-18 10:47:33,15.08849511,0.0001172,53.2164,145.0328,101.8039,258.3084,0.00015486,2.178e-05,0.0,0 STARLINK-4757,1 53824U 22114G   23077.44969442  .00002178  00000-0  15486-3 0  9998,2 53824  53.2164 145.0328 0001172 101.8039 258.3084 15.08849511 28159,6917.851,95.437,540.527,538.906,0.0
53824.0,STARLINK-4757,PAYLOAD,2023-03-18 13:58:18,15.08908123,0.0001851,53.2169,144.4383,125.1803,234.9362,-0.0004843,-8.002e-05,0.0,0 STARLINK-4757,1 53824U 22114G   23077.58215936 -.00008002  00000-0 -48430-3 0  9994,2 53824  53.2169 144.4383 0001851 125.1803 234.9362 15.08908123 28176,6917.672,95.433,540.818,538.257,0.0
53824.0,STARLINK-4757,PAYLOAD,2023-03-18 21:55:16,15.08839252,0.000132,53.217,142.9517,82.356,277.7582,2.0755e-05,4.2e-07,0.0,0 STARLINK-4757,1 53824U 22114G   23077.91338514  .00000042  00000-0  20755-4 0  9994,2 53824  53.2170 142.9517 0001320  82.3560 277.7582 15.08839252 28675,6917.883,95.438,540.661,538.835,0.0
53824.0,STARLINK-4757,PAYLOAD,2023-03-19 04:16:49,15.08826963,0.00014,53.2162,141.7622,89.2947,270.8206,0.00016767,2.381e-05,0.0,0 STARLINK-4757,1 53824U 22114G   23078.17835012  .00002381  00000-0  16767-3 0  9993,2 53824  53.2162 141.7622 0001400  89.2947 270.8206 15.08826963 28261,6917.92,95.438,540.754,538.817,0.0
53824.0,STARLINK-4757,PAYLOAD,2023-03-19 10:38:21,15.08840542,0.0001158,53.2174,140.5732,90.4115,269.701,8.6088e-05,1.083e-05,0.0,0 STARLINK-4757,1 53824U 22114G   23078.44330532  .00001083  00000-0  86088-4 0  9992,2 53824  53.2174 140.5732 0001158  90.4115 269.7010 15.08840542 28757,6917.879,95.438,540.545,538.943,0.0
53824.0,STARLINK-4757,PAYLOAD,2023-03-19 13:49:07,15.08844401,0.0001253,53.218,139.9786,91.0535,269.0601,0.0001253,1.707e-05,0.0,0 STARLINK-4757,1 53824U 22114G   23078.57578130  .00001707  00000-0  12530-3 0  9997,2 53824  53.2180 139.9786 0001253  91.0535 269.0601 15.08844401 28324,6917.867,95.437,540.599,538.865,0.0
53824.0,STARLINK-4757,PAYLOAD,2023-03-20 07:18:22,15.08841207,0.0001249,53.2179,136.7082,87.4163,272.6972,-5.1841e-05,-1.113e-05,0.0,0 STARLINK-4757,1 53824U 22114G   23079.30442775 -.00001113  00000-0 -51841-4 0  9996,2 53824  53.2179 136.7082 0001249  87.4163 272.6972 15.08841207 28431,6917.877,95.437,540.606,538.878,0.0
53824.0,STARLINK-4757,PAYLOAD,2023-03-20 10:29:08,15.08854758,0.0001261,53.2176,136.1127,95.8081,264.3054,-7.1782e-05,-1.431e-05,0.0,0 STARLINK-4757,1 53824U 22114G   23079.43689931 -.00001431  00000-0 -71782-4 0  9996,2 53824  53.2176 136.1127 0001261  95.8081 264.3054 15.08854758 28904,6917.835,95.437,540.573,538.828,0.0
53824.0,STARLINK-4757,PAYLOAD,2023-03-20 13:39:54,15.08857433,0.0001318,53.218,135.5182,95.7727,264.3415,-4.5384e-05,-1.011e-05,0.0,0 STARLINK-4757,1 53824U 22114G   23079.56937545 -.00001011  00000-0 -45384-4 0  9990,2 53824  53.2180 135.5182 0001318  95.7727 264.3415 15.08857433 28478,6917.827,95.436,540.604,538.78,0.0
53824.0,STARLINK-4757,PAYLOAD,2023-03-21 08:44:32,15.08836037,0.000138,53.2174,131.9494,89.9968,270.1183,-3.0872e-05,-7.79e-06,0.0,0 STARLINK-4757,1 53824U 22114G   23080.36426828 -.00000779  00000-0 -30872-4 0  9993,2 53824  53.2174 131.9494 0001380  89.9968 270.1183 15.08836037 28595,6917.893,95.438,540.712,538.803,0.0
53824.0,STARLINK-4757,PAYLOAD,2023-03-21 10:19:55,15.08841043,0.0001411,53.218,131.6517,88.3835,271.7319,-5.1183e-05,-1.102e-05,0.0,0 STARLINK-4757,1 53824U 22114G   23080.43050576 -.00001102  00000-0 -51183-4 0  9993,2 53824  53.2180 131.6517 0001411  88.3835 271.7319 15.08841043 29059,6917.877,95.437,540.718,538.766,0.0
53824.0,STARLINK-4757,PAYLOAD,2023-03-21 19:52:14,15.08843595,0.0001376,53.2176,129.8688,89.2583,270.8567,-5.6613e-05,-1.189e-05,0.0,0 STARLINK-4757,1 53824U 22114G   23080.82794358 -.00001189  00000-0 -56613-4 0  9997,2 53824  53.2176 129.8688 0001376  89.2583 270.8567 15.08843595 28667,6917.869,95.437,540.686,538.783,0.0
53824.0,STARLINK-4757,PAYLOAD,2023-03-22 19:43:01,15.08838896,0.0001436,53.2182,125.4098,100.662,259.4534,-6.5983e-05,-1.338e-05,0.0,0 STARLINK-4757,1 53824U 22114G   23081.82154787 -.00001338  00000-0 -65983-4 0  9990,2 53824  53.2182 125.4098 0001436 100.6620 259.4534 15.08838896 29260,6917.884,95.438,540.742,538.755,0.0
53824.0,STARLINK-4757,PAYLOAD,2023-03-23 03:39:57,15.08837536,0.0001259,53.2171,123.9209,106.0224,254.0907,-2.249e-06,-3.24e-06,0.0,0 STARLINK-4757,1 53824U 22114G   23082.15274725 -.00000324  00000-0 -22490-5 0  9993,2 53824  53.2171 123.9209 0001259 106.0224 254.0907 15.08837536 28868,6917.888,95.438,540.624,538.882,0.0
53824.0,STARLINK-4757,PAYLOAD,2023-03-23 11:36:52,15.08844962,0.0001356,53.2177,122.4349,103.6136,256.5007,6.0619e-05,6.77e-06,0.0,0 STARLINK-4757,1 53824U 22114G   23082.48394027  .00000677  00000-0  60619-4 0  9990,2 53824  53.2177 122.4349 0001356 103.6136 256.5007 15.08844962 28911,6917.865,95.437,540.668,538.792,0.0
53824.0,STARLINK-4757,PAYLOAD,2023-03-23 19:33:48,15.08844347,0.0001351,53.2181,120.9481,89.8129,270.3018,3.092e-06,-2.39e-06,0.0,0 STARLINK-4757,1 53824U 22114G   23082.81514198 -.00000239  00000-0  30920-5 0  9998,2 53824  53.2181 120.9481 0001351  89.8129 270.3018 15.08844347 29417,6917.867,95.437,540.667,538.797,0.0
53824.0,STARLINK-4757,PAYLOAD,2023-03-24 11:27:37,15.08866057,0.0001254,53.2176,117.9743,95.7963,264.3173,0.00020397,2.962e-05,0.0,0 STARLINK-4757,1 53824U 22114G   23083.47751923  .00002962  00000-0  20397-3 0  9999,2 53824  53.2176 117.9743 0001254  95.7963 264.3173 15.08866057 29060,6917.801,95.436,540.533,538.798,0.0
53824.0,STARLINK-4757,PAYLOAD,2023-03-24 19:24:37,15.08806114,8.01e-05,53.2179,116.4877,126.1814,233.9252,-0.00028831,-4.869e-05,0.0,0 STARLINK-4757,1 53824U 22114G   23083.80876772 -.00004869  00000-0 -28831-3 0  9997,2 53824  53.2179 116.4877 0000801 126.1814 233.9252 15.08806114 29110,6917.984,95.44,540.403,539.295,0.0
53824.0,STARLINK-4757,PAYLOAD,2023-03-25 11:18:28,15.08818885,0.0001373,53.2179,113.5118,106.4395,253.6748,-0.00019873,-3.447e-05,0.0,0 STARLINK-4757,1 53824U 22114G   23084.47116871 -.00003447  00000-0 -19873-3 0  9995,2 53824  53.2179 113.5118 0001373 106.4395 253.6748 15.08818885 29214,6917.945,95.439,540.76,538.86,0.0
53824.0,STARLINK-4757,PAYLOAD,2023-03-25 19:15:24,15.08829862,0.0001209,53.2172,112.027,105.7197,254.3929,-0.00013667,-2.462e-05,0.0,0 STARLINK-4757,1 53824U 22114G   23084.80236256 -.00002462  00000-0 -13667-3 0  9993,2 53824  53.2172 112.0270 0001209 105.7197 254.3929 15.08829862 29261,6917.911,95.438,540.613,538.94,0.0
53824.0,STARLINK-4757,PAYLOAD,2023-03-26 11:09:14,15.08850177,0.0001261,53.2174,109.0517,101.801,258.3124,-0.00012058,-2.207e-05,0.0,0 STARLINK-4757,1 53824U 22114G   23085.46475336 -.00002207  00000-0 -12058-3 0  9990,2 53824  53.2174 109.0517 0001261 101.8010 258.3124 15.08850177 29367,6917.849,95.437,540.587,538.842,0.0
53824.0,STARLINK-4757,PAYLOAD,2023-03-26 19:06:10,15.08849379,0.0001251,53.2176,107.5652,100.1827,259.9306,-0.00010521,-1.962e-05,0.0,0 STARLINK-4757,1 53824U 22114G   23085.79595199 -.00001962  00000-0 -10521-3 0  9996,2 53824  53.2176 107.5652 0001251 100.1827 259.9306 15.08849379 29865,6917.852,95.437,540.582,538.851,0.0
53824.0,STARLINK-4757,PAYLOAD,2023-03-27 04:38:29,15.08829063,0.000114,53.2173,105.7816,100.9939,259.1182,0.00028555,4.258e-05,0.0,0 STARLINK-4757,1 53824U 22114G   23086.19339325  .00004258  00000-0  28555-3 0  9993,2 53824  53.2173 105.7816 0001140 100.9939 259.1182 15.08829063 29472,6917.914,95.438,540.567,538.99,0.0
53824.0,STARLINK-4757,PAYLOAD,2023-03-27 12:35:24,15.08844616,0.0001231,53.2179,104.2945,100.8799,259.2332,0.00026692,3.963e-05,0.0,0 STARLINK-4757,1 53824U 22114G   23086.52458536  .00003963  00000-0  26692-3 0  9998,2 53824  53.2179 104.2945 0001231 100.8799 259.2332 15.08844616 29973,6917.866,95.437,540.583,538.88,0.0
53824.0,STARLINK-4757,PAYLOAD,2023-03-28 06:04:39,15.08838393,0.0001325,53.2175,101.0232,103.1433,256.9707,3.5332e-05,2.74e-06,0.0,0 STARLINK-4757,1 53824U 22114G   23087.25323832  .00000274  00000-0  35332-4 0  9993,2 53824  53.2175 101.0232 0001325 103.1433 256.9707 15.08838393 29636,6917.885,95.438,540.667,538.834,0.0
